[{"OBJECT_NAME":"OBJECT A","OBJECT_ID":"2025-013A","EPOCH":"2026-03-09T23:29:31.895232","MEAN_MOTION":15.29260221,"ECCENTRICITY":0.0010321,"INCLINATION":97.6364,"RA_OF_ASC_NODE":244.5149,"ARG_OF_PERICENTER":282.3775,"MEAN_ANOMALY":77.6309,"EPHEMERIS_TYPE":0,"CLASSIFICATION_TYPE":"U","NORAD_CAT_ID":62729,"ELEMENT_SET_NO":999,"REV_AT_EPOCH":6276,"BSTAR":0.0013206527,"MEAN_MOTION_DOT":0.00037616,"MEAN_MOTION_DDOT":0},{"OBJECT_NAME":"STARLINK-35741","OBJECT_ID":"2025-247H","EPOCH":"2026-03-09T15:44:14.627040","MEAN_MOTION":15.30190727,"ECCENTRICITY":0.00010933,"INCLINATION":53.1606,"RA_OF_ASC_NODE":191.2364,"ARG_OF_PERICENTER":82.5392,"MEAN_ANOMALY":277.5733,"EPHEMERIS_TYPE":0,"CLASSIFICATION_TYPE":"U","NORAD_CAT_ID":66272,"ELEMENT_SET_NO":999,"REV_AT_EPOCH":2108,"BSTAR":0.0011470433,"MEAN_MOTION_DOT":0.00033758,"MEAN_MOTION_DDOT":0}]
